<?xml version="1.0" encoding="UTF-8"?>
<ndm xmlns:xsi="http://www.w3.org/2001/XMLSchema-instance" xsi:noNamespaceSchemaLocation="https://sanaregistry.org/r/ndmxml_unqualified/ndmxml-2.0.0-master-2.0.xsd">
<omm id="CCSDS_OMM_VERS" version="2.0">
<header><CREATION_DATE/><ORIGINATOR/></header><body><segment><metadata><OBJECT_NAME>ORBCOMM FM01 [-]</OBJECT_NAME><OBJECT_ID>1995-017A</OBJECT_ID><CENTER_NAME>EARTH</CENTER_NAME><REF_FRAME>TEME</REF_FRAME><TIME_SYSTEM>UTC</TIME_SYSTEM><MEAN_ELEMENT_THEORY>SGP4</MEAN_ELEMENT_THEORY></metadata><data><meanElements><EPOCH>2023-11-09T13:20:10.560192</EPOCH><MEAN_MOTION>14.77232563</MEAN_MOTION><ECCENTRICITY>.0002803</ECCENTRICITY><INCLINATION>69.9682</INCLINATION><RA_OF_ASC_NODE>78.2736</RA_OF_ASC_NODE><ARG_OF_PERICENTER>158.0810</ARG_OF_PERICENTER><MEAN_ANOMALY>202.0458</MEAN_ANOMALY></meanElements><tleParameters><EPHEMERIS_TYPE>0</EPHEMERIS_TYPE><CLASSIFICATION_TYPE>U</CLASSIFICATION_TYPE><NORAD_CAT_ID>23545</NORAD_CAT_ID><ELEMENT_SET_NO>999</ELEMENT_SET_NO><REV_AT_EPOCH>52568</REV_AT_EPOCH><BSTAR>.11436E-2</BSTAR><MEAN_MOTION_DOT>.8049E-4</MEAN_MOTION_DOT><MEAN_MOTION_DDOT>0</MEAN_MOTION_DDOT></tleParameters></data></segment></body></omm>
<omm id="CCSDS_OMM_VERS" version="2.0">
<header><CREATION_DATE/><ORIGINATOR/></header><body><segment><metadata><OBJECT_NAME>ORBCOMM FM02 [-]</OBJECT_NAME><OBJECT_ID>1995-017B</OBJECT_ID><CENTER_NAME>EARTH</CENTER_NAME><REF_FRAME>TEME</REF_FRAME><TIME_SYSTEM>UTC</TIME_SYSTEM><MEAN_ELEMENT_THEORY>SGP4</MEAN_ELEMENT_THEORY></metadata><data><meanElements><EPOCH>2023-11-09T14:26:48.168096</EPOCH><MEAN_MOTION>14.76730200</MEAN_MOTION><ECCENTRICITY>.0004558</ECCENTRICITY><INCLINATION>69.9691</INCLINATION><RA_OF_ASC_NODE>97.2584</RA_OF_ASC_NODE><ARG_OF_PERICENTER>133.2895</ARG_OF_PERICENTER><MEAN_ANOMALY>226.8633</MEAN_ANOMALY></meanElements><tleParameters><EPHEMERIS_TYPE>0</EPHEMERIS_TYPE><CLASSIFICATION_TYPE>U</CLASSIFICATION_TYPE><NORAD_CAT_ID>23546</NORAD_CAT_ID><ELEMENT_SET_NO>999</ELEMENT_SET_NO><REV_AT_EPOCH>52534</REV_AT_EPOCH><BSTAR>.13315E-2</BSTAR><MEAN_MOTION_DOT>.9277E-4</MEAN_MOTION_DOT><MEAN_MOTION_DDOT>0</MEAN_MOTION_DDOT></tleParameters></data></segment></body></omm>
<omm id="CCSDS_OMM_VERS" version="2.0">
<header><CREATION_DATE/><ORIGINATOR/></header><body><segment><metadata><OBJECT_NAME>ORBCOMM FM08 [-]</OBJECT_NAME><OBJECT_ID>1997-084A</OBJECT_ID><CENTER_NAME>EARTH</CENTER_NAME><REF_FRAME>TEME</REF_FRAME><TIME_SYSTEM>UTC</TIME_SYSTEM><MEAN_ELEMENT_THEORY>SGP4</MEAN_ELEMENT_THEORY></metadata><data><meanElements><EPOCH>2023-11-09T06:51:34.474752</EPOCH><MEAN_MOTION>14.41530579</MEAN_MOTION><ECCENTRICITY>.0006383</ECCENTRICITY><INCLINATION>45.0148</INCLINATION><RA_OF_ASC_NODE>290.2261</RA_OF_ASC_NODE><ARG_OF_PERICENTER>186.2198</ARG_OF_PERICENTER><MEAN_ANOMALY>173.8574</MEAN_ANOMALY></meanElements><tleParameters><EPHEMERIS_TYPE>0</EPHEMERIS_TYPE><CLASSIFICATION_TYPE>U</CLASSIFICATION_TYPE><NORAD_CAT_ID>25112</NORAD_CAT_ID><ELEMENT_SET_NO>999</ELEMENT_SET_NO><REV_AT_EPOCH>35671</REV_AT_EPOCH><BSTAR>.8929E-3</BSTAR><MEAN_MOTION_DOT>.2787E-4</MEAN_MOTION_DOT><MEAN_MOTION_DDOT>0</MEAN_MOTION_DDOT></tleParameters></data></segment></body></omm>
<omm id="CCSDS_OMM_VERS" version="2.0">
<header><CREATION_DATE/><ORIGINATOR/></header><body><segment><metadata><OBJECT_NAME>ORBCOMM FM10 [-]</OBJECT_NAME><OBJECT_ID>1997-084B</OBJECT_ID><CENTER_NAME>EARTH</CENTER_NAME><REF_FRAME>TEME</REF_FRAME><TIME_SYSTEM>UTC</TIME_SYSTEM><MEAN_ELEMENT_THEORY>SGP4</MEAN_ELEMENT_THEORY></metadata><data><meanElements><EPOCH>2023-11-09T08:27:57.790080</EPOCH><MEAN_MOTION>14.41470538</MEAN_MOTION><ECCENTRICITY>.0003332</ECCENTRICITY><INCLINATION>45.0160</INCLINATION><RA_OF_ASC_NODE>291.6401</RA_OF_ASC_NODE><ARG_OF_PERICENTER>157.1447</ARG_OF_PERICENTER><MEAN_ANOMALY>202.9551</MEAN_ANOMALY></meanElements><tleParameters><EPHEMERIS_TYPE>0</EPHEMERIS_TYPE><CLASSIFICATION_TYPE>U</CLASSIFICATION_TYPE><NORAD_CAT_ID>25113</NORAD_CAT_ID><ELEMENT_SET_NO>999</ELEMENT_SET_NO><REV_AT_EPOCH>53187</REV_AT_EPOCH><BSTAR>.86976E-3</BSTAR><MEAN_MOTION_DOT>.2707E-4</MEAN_MOTION_DOT><MEAN_MOTION_DDOT>0</MEAN_MOTION_DDOT></tleParameters></data></segment></body></omm>
<omm id="CCSDS_OMM_VERS" version="2.0">
<header><CREATION_DATE/><ORIGINATOR/></header><body><segment><metadata><OBJECT_NAME>ORBCOMM FM11 [+]</OBJECT_NAME><OBJECT_ID>1997-084C</OBJECT_ID><CENTER_NAME>EARTH</CENTER_NAME><REF_FRAME>TEME</REF_FRAME><TIME_SYSTEM>UTC</TIME_SYSTEM><MEAN_ELEMENT_THEORY>SGP4</MEAN_ELEMENT_THEORY></metadata><data><meanElements><EPOCH>2023-11-09T05:14:20.238720</EPOCH><MEAN_MOTION>14.41358386</MEAN_MOTION><ECCENTRICITY>.0004058</ECCENTRICITY><INCLINATION>45.0145</INCLINATION><RA_OF_ASC_NODE>292.2110</RA_OF_ASC_NODE><ARG_OF_PERICENTER>154.3231</ARG_OF_PERICENTER><MEAN_ANOMALY>205.7821</MEAN_ANOMALY></meanElements><tleParameters><EPHEMERIS_TYPE>0</EPHEMERIS_TYPE><CLASSIFICATION_TYPE>U</CLASSIFICATION_TYPE><NORAD_CAT_ID>25114</NORAD_CAT_ID><ELEMENT_SET_NO>999</ELEMENT_SET_NO><REV_AT_EPOCH>35682</REV_AT_EPOCH><BSTAR>.92199E-3</BSTAR><MEAN_MOTION_DOT>.2871E-4</MEAN_MOTION_DOT><MEAN_MOTION_DDOT>0</MEAN_MOTION_DDOT></tleParameters></data></segment></body></omm>
<omm id="CCSDS_OMM_VERS" version="2.0">
<header><CREATION_DATE/><ORIGINATOR/></header><body><segment><metadata><OBJECT_NAME>ORBCOMM FM12 [-]</OBJECT_NAME><OBJECT_ID>1997-084D</OBJECT_ID><CENTER_NAME>EARTH</CENTER_NAME><REF_FRAME>TEME</REF_FRAME><TIME_SYSTEM>UTC</TIME_SYSTEM><MEAN_ELEMENT_THEORY>SGP4</MEAN_ELEMENT_THEORY></metadata><data><meanElements><EPOCH>2023-11-09T07:31:13.808064</EPOCH><MEAN_MOTION>14.41341263</MEAN_MOTION><ECCENTRICITY>.0003162</ECCENTRICITY><INCLINATION>45.0153</INCLINATION><RA_OF_ASC_NODE>291.4042</RA_OF_ASC_NODE><ARG_OF_PERICENTER>160.6410</ARG_OF_PERICENTER><MEAN_ANOMALY>199.4560</MEAN_ANOMALY></meanElements><tleParameters><EPHEMERIS_TYPE>0</EPHEMERIS_TYPE><CLASSIFICATION_TYPE>U</CLASSIFICATION_TYPE><NORAD_CAT_ID>25115</NORAD_CAT_ID><ELEMENT_SET_NO>999</ELEMENT_SET_NO><REV_AT_EPOCH>35663</REV_AT_EPOCH><BSTAR>.82934E-3</BSTAR><MEAN_MOTION_DOT>.2567E-4</MEAN_MOTION_DOT><MEAN_MOTION_DDOT>0</MEAN_MOTION_DDOT></tleParameters></data></segment></body></omm>
<omm id="CCSDS_OMM_VERS" version="2.0">
<header><CREATION_DATE/><ORIGINATOR/></header><body><segment><metadata><OBJECT_NAME>ORBCOMM FM09 [-]</OBJECT_NAME><OBJECT_ID>1997-084E</OBJECT_ID><CENTER_NAME>EARTH</CENTER_NAME><REF_FRAME>TEME</REF_FRAME><TIME_SYSTEM>UTC</TIME_SYSTEM><MEAN_ELEMENT_THEORY>SGP4</MEAN_ELEMENT_THEORY></metadata><data><meanElements><EPOCH>2023-11-09T06:01:52.961088</EPOCH><MEAN_MOTION>14.41313542</MEAN_MOTION><ECCENTRICITY>.0004026</ECCENTRICITY><INCLINATION>45.0155</INCLINATION><RA_OF_ASC_NODE>292.3370</RA_OF_ASC_NODE><ARG_OF_PERICENTER>132.8184</ARG_OF_PERICENTER><MEAN_ANOMALY>227.3004</MEAN_ANOMALY></meanElements><tleParameters><EPHEMERIS_TYPE>0</EPHEMERIS_TYPE><CLASSIFICATION_TYPE>U</CLASSIFICATION_TYPE><NORAD_CAT_ID>25116</NORAD_CAT_ID><ELEMENT_SET_NO>999</ELEMENT_SET_NO><REV_AT_EPOCH>35683</REV_AT_EPOCH><BSTAR>.80213E-3</BSTAR><MEAN_MOTION_DOT>.2477E-4</MEAN_MOTION_DOT><MEAN_MOTION_DDOT>0</MEAN_MOTION_DDOT></tleParameters></data></segment></body></omm>

</ndm>
