ORBCOMM FM01 [-]        
1 23545U 95017A   23313.55567778  .00008049  00000+0  11436-2 0  9990
2 23545  69.9682  78.2736 0002803 158.0810 202.0458 14.77232563525687
ORBCOMM FM02 [-]        
1 23546U 95017B   23313.60194639  .00009277  00000+0  13315-2 0  9991
2 23546  69.9691  97.2584 0004558 133.2895 226.8633 14.76730200525349
ORBCOMM FM08 [-]        
1 25112U 97084A   23313.28581568  .00002787  00000+0  89290-3 0  9998
2 25112  45.0148 290.2261 0006383 186.2198 173.8574 14.41530579356718
ORBCOMM FM10 [-]        
1 25113U 97084B   23313.35275220  .00002707  00000+0  86976-3 0  9992
2 25113  45.0160 291.6401 0003332 157.1447 202.9551 14.41470538531878
ORBCOMM FM11 [+]        
1 25114U 97084C   23313.21828980  .00002871  00000+0  92199-3 0  9991
2 25114  45.0145 292.2110 0004058 154.3231 205.7821 14.41358386356829
ORBCOMM FM12 [-]        
1 25115U 97084D   23313.31335426  .00002567  00000+0  82934-3 0  9999
2 25115  45.0153 291.4042 0003162 160.6410 199.4560 14.41341263356632
ORBCOMM FM09 [-]        
1 25116U 97084E   23313.25130742  .00002477  00000+0  80213-3 0  9995
2 25116  45.0155 292.3370 0004026 132.8184 227.3004 14.41313542356833
